{"fetched_at":"2026-07-09T18:16:40.685Z","source":"https://celestrak.org/NORAD/elements/gp.php?GROUP=kuiper&FORMAT=JSON","constellation":"kuiper","records":[{"OBJECT_NAME":"KUIPER-00096","OBJECT_ID":"2025-171D","EPOCH":"2026-07-08T14:57:39.262176","CLASSIFICATION_TYPE":"U","MEAN_MOTION":14.79929703,"ECCENTRICITY":0.00004993,"INCLINATION":51.9001,"RA_OF_ASC_NODE":343.3043,"ARG_OF_PERICENTER":107.5977,"MEAN_ANOMALY":252.504,"EPHEMERIS_TYPE":0,"NORAD_CAT_ID":65135,"ELEMENT_SET_NO":999,"REV_AT_EPOCH":5080,"BSTAR":0.00034690579,"MEAN_MOTION_DOT":0.00002424,"MEAN_MOTION_DDOT":0},{"OBJECT_NAME":"KUIPER-00097","OBJECT_ID":"2025-171E","EPOCH":"2026-07-08T16:31:02.582112","CLASSIFICATION_TYPE":"U","MEAN_MOTION":14.79925413,"ECCENTRICITY":0.00006554,"INCLINATION":51.9024,"RA_OF_ASC_NODE":345.6726,"ARG_OF_PERICENTER":104.4524,"MEAN_ANOMALY":255.6511,"EPHEMERIS_TYPE":0,"NORAD_CAT_ID":65136,"ELEMENT_SET_NO":999,"REV_AT_EPOCH":5076,"BSTAR":0.00035120849,"MEAN_MOTION_DOT":0.00002457,"MEAN_MOTION_DDOT":0},{"OBJECT_NAME":"KUIPER-00098","OBJECT_ID":"2025-171F","EPOCH":"2026-07-08T16:27:08.274816","CLASSIFICATION_TYPE":"U","MEAN_MOTION":14.79927485,"ECCENTRICITY":0.00004939,"INCLINATION":51.901,"RA_OF_ASC_NODE":348.0505,"ARG_OF_PERICENTER":83.2517,"MEAN_ANOMALY":276.8501,"EPHEMERIS_TYPE":0,"NORAD_CAT_ID":65137,"ELEMENT_SET_NO":999,"REV_AT_EPOCH":5008,"BSTAR":0.00035375622,"MEAN_MOTION_DOT":0.00002476,"MEAN_MOTION_DDOT":0},{"OBJECT_NAME":"KUIPER-00099","OBJECT_ID":"2025-171G","EPOCH":"2026-07-08T15:54:02.932416","CLASSIFICATION_TYPE":"U","MEAN_MOTION":14.79928194,"ECCENTRICITY":0.00005952,"INCLINATION":51.903,"RA_OF_ASC_NODE":338.1558,"ARG_OF_PERICENTER":103.294,"MEAN_ANOMALY":256.8089,"EPHEMERIS_TYPE":0,"NORAD_CAT_ID":65138,"ELEMENT_SET_NO":999,"REV_AT_EPOCH":5087,"BSTAR":0.00036869599,"MEAN_MOTION_DOT":0.0000259,"MEAN_MOTION_DDOT":0},{"OBJECT_NAME":"KUIPER-00100","OBJECT_ID":"2025-171H","EPOCH":"2026-07-08T16:46:31.495296","CLASSIFICATION_TYPE":"U","MEAN_MOTION":14.7993342,"ECCENTRICITY":0.00004416,"INCLINATION":51.9025,"RA_OF_ASC_NODE":335.4645,"ARG_OF_PERICENTER":92.4365,"MEAN_ANOMALY":267.6648,"EPHEMERIS_TYPE":0,"NORAD_CAT_ID":65139,"ELEMENT_SET_NO":999,"REV_AT_EPOCH":5091,"BSTAR":0.00010312256,"MEAN_MOTION_DOT":0.00000565,"MEAN_MOTION_DDOT":0},{"OBJECT_NAME":"KUIPER-00102","OBJECT_ID":"2025-171J","EPOCH":"2026-07-08T16:42:39.804192","CLASSIFICATION_TYPE":"U","MEAN_MOTION":14.79926544,"ECCENTRICITY":0.00005759,"INCLINATION":51.899,"RA_OF_ASC_NODE":337.9663,"ARG_OF_PERICENTER":84.7621,"MEAN_ANOMALY":275.3407,"EPHEMERIS_TYPE":0,"NORAD_CAT_ID":65140,"ELEMENT_SET_NO":999,"REV_AT_EPOCH":5087,"BSTAR":0.00034640717,"MEAN_MOTION_DOT":0.0000242,"MEAN_MOTION_DDOT":0},{"OBJECT_NAME":"KUIPER-00103","OBJECT_ID":"2025-171K","EPOCH":"2026-07-08T15:26:51.552672","CLASSIFICATION_TYPE":"U","MEAN_MOTION":14.79928334,"ECCENTRICITY":0.00005741,"INCLINATION":51.8998,"RA_OF_ASC_NODE":355.6972,"ARG_OF_PERICENTER":103.7254,"MEAN_ANOMALY":256.3772,"EPHEMERIS_TYPE":0,"NORAD_CAT_ID":65141,"ELEMENT_SET_NO":999,"REV_AT_EPOCH":5062,"BSTAR":0.00035822924,"MEAN_MOTION_DOT":0.00002511,"MEAN_MOTION_DDOT":0},{"OBJECT_NAME":"KUIPER-00104","OBJECT_ID":"2025-171L","EPOCH":"2026-07-08T17:23:30.894432","CLASSIFICATION_TYPE":"U","MEAN_MOTION":14.79925572,"ECCENTRICITY":0.00006237,"INCLINATION":51.9032,"RA_OF_ASC_NODE":342.8376,"ARG_OF_PERICENTER":109.2848,"MEAN_ANOMALY":250.8182,"EPHEMERIS_TYPE":0,"NORAD_CAT_ID":65142,"ELEMENT_SET_NO":999,"REV_AT_EPOCH":5081,"BSTAR":0.00010543361,"MEAN_MOTION_DOT":0.00000583,"MEAN_MOTION_DDOT":0},{"OBJECT_NAME":"KUIPER-00105","OBJECT_ID":"2025-171M","EPOCH":"2026-07-08T18:00:30.489696","CLASSIFICATION_TYPE":"U","MEAN_MOTION":14.79925134,"ECCENTRICITY":0.00006331,"INCLINATION":51.9006,"RA_OF_ASC_NODE":350.3257,"ARG_OF_PERICENTER":105.8742,"MEAN_ANOMALY":254.229,"EPHEMERIS_TYPE":0,"NORAD_CAT_ID":65143,"ELEMENT_SET_NO":999,"REV_AT_EPOCH":5071,"BSTAR":0.00013169675,"MEAN_MOTION_DOT":0.00000783,"MEAN_MOTION_DDOT":0},{"OBJECT_NAME":"KUIPER-00106","OBJECT_ID":"2025-171N","EPOCH":"2026-07-08T14:18:15.314112","CLASSIFICATION_TYPE":"U","MEAN_MOTION":14.79926397,"ECCENTRICITY":0.00006473,"INCLINATION":51.9017,"RA_OF_ASC_NODE":329.77,"ARG_OF_PERICENTER":101.2354,"MEAN_ANOMALY":258.8681,"EPHEMERIS_TYPE":0,"NORAD_CAT_ID":65144,"ELEMENT_SET_NO":999,"REV_AT_EPOCH":5099,"BSTAR":0.00034183056,"MEAN_MOTION_DOT":0.00002385,"MEAN_MOTION_DDOT":0},{"OBJECT_NAME":"KUIPER-00107","OBJECT_ID":"2025-171P","EPOCH":"2026-07-08T16:50:26.327904","CLASSIFICATION_TYPE":"U","MEAN_MOTION":14.79923032,"ECCENTRICITY":0.00006378,"INCLINATION":51.9026,"RA_OF_ASC_NODE":332.9837,"ARG_OF_PERICENTER":105.3831,"MEAN_ANOMALY":254.7202,"EPHEMERIS_TYPE":0,"NORAD_CAT_ID":65145,"ELEMENT_SET_NO":999,"REV_AT_EPOCH":5095,"BSTAR":0.000084711533,"MEAN_MOTION_DOT":0.00000425,"MEAN_MOTION_DDOT":0},{"OBJECT_NAME":"KUIPER-00108","OBJECT_ID":"2025-171Q","EPOCH":"2026-07-08T17:19:39.158400","CLASSIFICATION_TYPE":"U","MEAN_MOTION":14.79927907,"ECCENTRICITY":0.00005845,"INCLINATION":51.9023,"RA_OF_ASC_NODE":345.4279,"ARG_OF_PERICENTER":101.1288,"MEAN_ANOMALY":258.974,"EPHEMERIS_TYPE":0,"NORAD_CAT_ID":65146,"ELEMENT_SET_NO":999,"REV_AT_EPOCH":5078,"BSTAR":0.00035527654,"MEAN_MOTION_DOT":0.00002488,"MEAN_MOTION_DDOT":0},{"OBJECT_NAME":"KUIPER-00109","OBJECT_ID":"2025-171R","EPOCH":"2026-07-08T16:38:46.569984","CLASSIFICATION_TYPE":"U","MEAN_MOTION":14.7992131,"ECCENTRICITY":0.00006611,"INCLINATION":51.9028,"RA_OF_ASC_NODE":340.4964,"ARG_OF_PERICENTER":104.3917,"MEAN_ANOMALY":255.7119,"EPHEMERIS_TYPE":0,"NORAD_CAT_ID":65147,"ELEMENT_SET_NO":999,"REV_AT_EPOCH":5084,"BSTAR":0.00016332705,"MEAN_MOTION_DOT":0.00001024,"MEAN_MOTION_DDOT":0},{"OBJECT_NAME":"KUIPER-00110","OBJECT_ID":"2025-171S","EPOCH":"2026-07-08T17:08:00.174624","CLASSIFICATION_TYPE":"U","MEAN_MOTION":14.79928539,"ECCENTRICITY":0.00007097,"INCLINATION":51.9013,"RA_OF_ASC_NODE":352.9664,"ARG_OF_PERICENTER":109.6312,"MEAN_ANOMALY":250.4727,"EPHEMERIS_TYPE":0,"NORAD_CAT_ID":65148,"ELEMENT_SET_NO":999,"REV_AT_EPOCH":5066,"BSTAR":0.00037751418,"MEAN_MOTION_DOT":0.00002658,"MEAN_MOTION_DDOT":0},{"OBJECT_NAME":"KUIPER-00111","OBJECT_ID":"2025-171T","EPOCH":"2026-07-08T17:48:49.788288","CLASSIFICATION_TYPE":"U","MEAN_MOTION":14.79924183,"ECCENTRICITY":0.00006802,"INCLINATION":51.8984,"RA_OF_ASC_NODE":357.7199,"ARG_OF_PERICENTER":108.9235,"MEAN_ANOMALY":251.1801,"EPHEMERIS_TYPE":0,"NORAD_CAT_ID":65149,"ELEMENT_SET_NO":999,"REV_AT_EPOCH":5060,"BSTAR":0.00012011539,"MEAN_MOTION_DOT":0.00000694,"MEAN_MOTION_DDOT":0},{"OBJECT_NAME":"KUIPER-00112","OBJECT_ID":"2025-171U","EPOCH":"2026-07-08T17:27:24.849216","CLASSIFICATION_TYPE":"U","MEAN_MOTION":14.79923806,"ECCENTRICITY":0.00005668,"INCLINATION":51.9024,"RA_OF_ASC_NODE":340.3964,"ARG_OF_PERICENTER":102.5838,"MEAN_ANOMALY":257.5188,"EPHEMERIS_TYPE":0,"NORAD_CAT_ID":65150,"ELEMENT_SET_NO":999,"REV_AT_EPOCH":5084,"BSTAR":0.00010484947,"MEAN_MOTION_DOT":0.00000578,"MEAN_MOTION_DDOT":0}]}
