KUIPER-00096            
1 65135U 25171D   26189.62337109  .00002424  00000+0  34691-3 0  9990
2 65135  51.9001 343.3043 0000499 107.5977 252.5040 14.79929703 50808
KUIPER-00097            
1 65136U 25171E   26189.68822433  .00002457  00000+0  35121-3 0  9991
2 65136  51.9024 345.6726 0000655 104.4524 255.6511 14.79925413 50761
KUIPER-00098            
1 65137U 25171F   26189.68551244  .00002476  00000+0  35376-3 0  9994
2 65137  51.9010 348.0505 0000493  83.2517 276.8501 14.79927485 50085
KUIPER-00099            
1 65138U 25171G   26189.66253394  .00002590  00000+0  36870-3 0  9995
2 65138  51.9030 338.1558 0000595 103.2940 256.8089 14.79928194 50876
KUIPER-00100            
1 65139U 25171H   26189.69897564  .00000565  00000+0  10312-3 0  9995
2 65139  51.9025 335.4645 0000441  92.4365 267.6648 14.79933420 50912
KUIPER-00102            
1 65140U 25171J   26189.69629403  .00002420  00000+0  34641-3 0  9995
2 65140  51.8990 337.9663 0000575  84.7621 275.3407 14.79926544 50871
KUIPER-00103            
1 65141U 25171K   26189.64365223  .00002511  00000+0  35823-3 0  9992
2 65141  51.8998 355.6972 0000574 103.7254 256.3772 14.79928334 50629
KUIPER-00104            
1 65142U 25171L   26189.72466313  .00000583  00000+0  10543-3 0  9993
2 65142  51.9032 342.8376 0000623 109.2848 250.8182 14.79925572 50817
KUIPER-00105            
1 65143U 25171M   26189.75035289  .00000783  00000+0  13170-3 0  9992
2 65143  51.9006 350.3257 0000633 105.8742 254.2290 14.79925134 50718
KUIPER-00106            
1 65144U 25171N   26189.59601058  .00002385  00000+0  34183-3 0  9995
2 65144  51.9017 329.7700 0000647 101.2354 258.8681 14.79926397 50994
KUIPER-00107            
1 65145U 25171P   26189.70169361  .00000425  00000+0  84712-4 0  9992
2 65145  51.9026 332.9837 0000637 105.3831 254.7202 14.79923032 50959
KUIPER-00108            
1 65146U 25171Q   26189.72198100  .00002488  00000+0  35528-3 0  9999
2 65146  51.9023 345.4279 0000584 101.1288 258.9740 14.79927907 50786
KUIPER-00109            
1 65147U 25171R   26189.69359456  .00001024  00000+0  16333-3 0  9997
2 65147  51.9028 340.4964 0000661 104.3917 255.7119 14.79921310 50842
KUIPER-00110            
1 65148U 25171S   26189.71389091  .00002658  00000+0  37751-3 0  9990
2 65148  51.9013 352.9664 0000709 109.6312 250.4727 14.79928539 50669
KUIPER-00111            
1 65149U 25171T   26189.74224292  .00000694  00000+0  12012-3 0  9996
2 65149  51.8984 357.7199 0000680 108.9235 251.1801 14.79924183 50602
KUIPER-00112            
1 65150U 25171U   26189.72737094  .00000578  00000+0  10485-3 0  9998
2 65150  51.9024 340.3964 0000566 102.5838 257.5188 14.79923806 50845
